[{"OBJECT_NAME":"STARLINK-32619","OBJECT_ID":"2024-217T","EPOCH":"2026-03-09T16:01:55.228512","MEAN_MOTION":15.30194524,"ECCENTRICITY":0.00012083,"INCLINATION":53.1609,"RA_OF_ASC_NODE":194.3077,"ARG_OF_PERICENTER":70.3644,"MEAN_ANOMALY":289.7487,"EPHEMERIS_TYPE":0,"CLASSIFICATION_TYPE":"U","NORAD_CAT_ID":62074,"ELEMENT_SET_NO":999,"REV_AT_EPOCH":7341,"BSTAR":0.001152285,"MEAN_MOTION_DOT":0.00033918,"MEAN_MOTION_DDOT":0},{"OBJECT_NAME":"SL-19 R\/B","OBJECT_ID":"2011-005B","EPOCH":"2026-03-09T21:50:35.538720","MEAN_MOTION":15.57556472,"ECCENTRICITY":0.01260184,"INCLINATION":99.3438,"RA_OF_ASC_NODE":178.5978,"ARG_OF_PERICENTER":174.8144,"MEAN_ANOMALY":185.4445,"EPHEMERIS_TYPE":0,"CLASSIFICATION_TYPE":"U","NORAD_CAT_ID":37363,"ELEMENT_SET_NO":999,"REV_AT_EPOCH":82354,"BSTAR":0.00054776137,"MEAN_MOTION_DOT":0.00058791,"MEAN_MOTION_DDOT":0}]
